SCD 1                   
1 22490U 93009B   26196.95283150  .00000293  00000+0  29432-4 0  9992
2 22490  24.9705  29.9632 0042081  82.5333  35.7433 14.46128812765286
TECHSAT 1B (GO-32)      
1 25397U 98043D   26196.93420812  .00000003  00000+0  21470-4 0  9993
2 25397  99.0086 190.4201 0002197 113.5065 246.6344 14.24433441455426
SCD 2                   
1 25504U 98060A   26196.26197317  .00000274  00000+0  25831-4 0  9994
2 25504  24.9945 259.0250 0016971  60.2756 348.6331 14.45534804464396
DLR-TUBSAT              
1 25757U 99029B   26196.95171519 -.00000002  00000+0  11369-4 0  9993
2 25757  98.6711 193.4043 0012976 262.1951  97.7770 14.52433336437426
TERRA                   
1 25994U 99068A   26196.91535538  .00000174  00000+0  44337-4 0  9990
2 25994  97.9441 245.3203 0003445 121.1429 292.0122 14.61123995413805
MAROC-TUBSAT            
1 27004U 01056D   26196.76191661 -.00000039  00000+0  87616-5 0  9991
2 27004  99.8098  14.1621 0020592  70.6859 307.8358 13.70263570230100
AQUA                    
1 27424U 02022A   26195.50499725  .00000358  00000+0  80864-4 0  9994
2 27424  98.4295 165.3370 0000927 111.8770   0.7592 14.62196472287266
SHIYAN-1 (SY-1)         
1 28220U 04012A   26196.75233019  .00007588  00000+0  22992-3 0  9999
2 28220  97.8688 276.6904 0004097 271.8328  88.2444 15.34461774215478
AURA                    
1 28376U 04026A   26196.88060777  .00000347  00000+0  79892-4 0  9997
2 28376  98.3430 153.5746 0001331  93.5793 266.5559 14.61368344170400
IRS-P5 (CARTOSAT-1)     
1 28649U 05017A   26196.93425273  .00000724  00000+0  78271-4 0  9992
2 28649  97.5306 218.6947 0001348  53.3396 306.7947 14.91118121148102
SINAH 1                 
1 28893U 05043D   26196.89316392  .00000123  00000+0  32691-4 0  9997
2 28893  98.2895 331.3896 0014447 181.3321 178.7845 14.64175715104720
RESURS-DK 1             
1 29228U 06021A   26196.52482071  .00000919  00000+0  57571-4 0  9992
2 29228  69.9307 266.1925 0007128 270.7395  89.2954 15.13319759106863
ARIRANG-2 (KOMPSAT-2)   
1 29268U 06031A   26197.00426088  .00000399  00000+0  83371-4 0  9996
2 29268  97.8305  20.0573 0014219 348.2781 171.4996 14.64677029 65697
LAPAN-TUBSAT            
1 29709U 07001A   26196.94008104 -.00000036  00000+0  24790-5 0  9991
2 29709  98.1346 196.8137 0013537  91.5986 268.6779 14.85975271 55422
HAIYANG-1B              
1 31113U 07010A   26196.95185925  .00000024  00000+0  25067-4 0  9994
2 31113  98.3515 177.6841 0014660 113.6997 246.5726 14.31033433  4752
COSMO-SKYMED 1          
1 31598U 07023A   26196.94052649  .00001398  00000+0  12600-3 0  9993
2 31598  97.8846  29.0397 0001491 103.0882 257.0506 14.97221418 34097
TERRASAR-X              
1 31698U 07026A   26188.47915537  .00000240  00000+0  14624-4 0  9994
2 31698  97.4461 195.8972 0001878  86.9540 273.1909 15.19153986 56300
WORLDVIEW-1 (WV-1)      
1 32060U 07041A   26196.91141576  .00003198  00000+0  13275-3 0  9992
2 32060  97.3907 316.2522 0001593 202.9820 157.1347 15.24563308 47253
YAOGAN-3                
1 32289U 07055A   26196.98803098  .00001204  00000+0  12779-3 0  9995
2 32289  97.8145 226.5811 0001644  78.3188 281.8215 14.90885941 10169
COSMO-SKYMED 2          
1 32376U 07059A   26196.92053282  .00000137  00000+0  23824-4 0  9990
2 32376  97.8894  20.1028 0001458  94.0682 266.0697 14.82150789  6263
RADARSAT-2              
1 32382U 07061A   26197.00575189 -.00000138  00000+0 -36694-4 0  9997
2 32382  98.5777 203.5266 0001296  84.2105 275.9225 14.29982892970074
CARTOSAT-2A             
1 32783U 08021A   26196.92993737 -.00000098  00000+0 -64661-5 0  9993
2 32783  97.7620 244.6553 0012480  24.9245 335.2567 14.79275866983057
HUANJING 1A (HJ-1A)     
1 33320U 08041A   26196.95722499  .00000071  00000+0  14653-4 0  9995
2 33320  97.6691 181.6860 0020254  47.2545 313.0370 14.84048210962670
HUANJING 1B (HJ-1B)     
1 33321U 08041B   26196.93951553  .00000903  00000+0  11503-3 0  9993
2 33321  97.6528 184.7532 0037986  88.9191 271.6375 14.83368034962671
GEOEYE 1                
1 33331U 08042A   26196.91275689  .00000178  00000+0  42471-4 0  9995
2 33331  98.1327 270.5002 0003896 344.3508  15.7574 14.64649697954355
THEOS                   
1 33396U 08049A   26196.92615866  .00000076  00000+0  55723-4 0  9990
2 33396  98.5560 253.2742 0001096  88.0226 272.1076 14.20136711922044
COSMO-SKYMED 3          
1 33412U 08054A   26196.89301257  .00002583  00000+0  17589-3 0  9999
2 33412  97.8245  55.9385 0015820 164.3313 195.8407 15.07118078961268
YAOGAN-4                
1 33446U 08061A   26196.77081776  .00000451  00000+0  61759-4 0  9993
2 33446  97.9304 130.0710 0013760 343.7681  16.3090 14.83251950949903
GOSAT (IBUKI)           
1 33492U 09002A   26196.91123802  .00000286  00000+0  58851-4 0  9998
2 33492  98.0914 307.6357 0001143  88.4019 271.7317 14.67540117935678
DEIMOS-1                
1 35681U 09041A   26196.94473789  .00000534  00000+0  85982-4 0  9999
2 35681  97.7428 352.9302 0002792  91.9661 268.1869 14.75265706911125
